,OBJECTID,Shape_Leng,Shape_Area,zone,LocationID,borough,latitude,longitude,zipcode
0,1,0.116357453189,0.0007823067885,Newark Airport,1,EWR,40.689488139614994,-74.17152567596138,07114
1,2,0.43346966679,0.00486634037837,Jamaica Bay,2,Queens,40.61079106729335,-73.82248951361693,11693
2,3,0.0843411059012,0.000314414156821,Allerton/Pelham Gardens,3,Bronx,40.865745431551126,-73.8449466422813,10469
3,4,0.0435665270921,0.000111871946192,Alphabet City,4,Manhattan,40.72413720786238,-73.97772562994714,10009
4,5,0.0921464898574,0.000497957489363,Arden Heights,5,Staten Island,40.55066537440838,-74.18753677053789,10312
5,6,0.150490542523,0.000606460984581,Arrochar/Fort Wadsworth,6,Staten Island,40.59904685658462,-74.07256367951013,10305
6,7,0.107417171123,0.000389787989274,Astoria,7,Queens,40.76108186554351,-73.92031477248251,11106
7,8,0.0275906911574,2.6587716279e-05,Astoria Park,8,Queens,40.77862588146737,-73.92312225146479,11102
8,9,0.0997840924705,0.000338443803197,Auburndale,9,Queens,40.75432771219846,-73.7864908458439,11358
9,10,0.0998394794152,0.000435823818081,Baisley Park,10,Queens,40.67825239491566,-73.78899813157558,11434
10,11,0.0792110389596,0.00026452053504,Bath Beach,11,Brooklyn,40.60401449921972,-74.007510449703,11214
11,12,0.0366613013579,4.15116236727e-05,Battery Park,12,Manhattan,40.70249696061747,-74.01572587059847,10275
12,13,0.0502813228631,0.000149358592917,Battery Park City,13,Manhattan,40.711534654299,-74.0158919069822,10281
13,14,0.175213698053,0.00138177826442,Bay Ridge,14,Brooklyn,40.62359258557067,-74.02852008938801,11209
14,15,0.14433622262,0.000925219395547,Bay Terrace/Fort Totten,15,Queens,40.78488539626116,-73.78525185967825,11360
15,16,0.141291873771,0.000871889446182,Bayside,16,Queens,40.76122069617673,-73.77473937264739,11361
16,17,0.093522632948,0.000322957654799,Bedford,17,Brooklyn,40.691780230810245,-73.95068606511312,11206
17,18,0.0697995498569,0.000148850163948,Bedford Park,18,Bronx,40.868678786045926,-73.89126978543936,10458
18,19,0.101824875452,0.000546661094782,Bellerose,19,Queens,40.73674328423478,-73.72858190313416,11426
19,20,0.0514401924362,0.000134512633032,Belmont,20,Bronx,40.857742168079604,-73.8861961357746,10458
20,21,0.115973569062,0.000380251345507,Bensonhurst East,21,Brooklyn,40.60199502260022,-73.98585700957061,11223
21,22,0.126170229196,0.000472062684608,Bensonhurst West,22,Brooklyn,40.609681462062035,-73.9950716926507,11214
22,23,0.290556028962,0.00219556576201,Bloomfield/Emerson Hill,23,Staten Island,40.60751363416179,-74.16048830961626,10314
23,24,0.0469999619287,6.07235737749e-05,Bloomingdale,24,Manhattan,40.80191580520843,-73.96552225569732,10025
24,25,0.0471458199319,0.000124168267356,Boerum Hill,25,Brooklyn,40.685719434441445,-73.98647182471841,11217
25,26,0.12354780707,0.000534039927626,Borough Park,26,Brooklyn,40.628601627934195,-73.99012657853419,11219
26,27,0.202508808518,0.00134088762746,Breezy Point/Fort Tilden/Riis Beach,27,Queens,40.558946435494285,-73.90170546963151,11697
27,28,0.097960782214,0.000291203927662,Briarwood/Jamaica Hills,28,Queens,40.71075352720881,-73.80834608449645,11432
28,29,0.0714083127733,0.000201673837402,Brighton Beach,29,Brooklyn,40.58251439846488,-73.9606195853329,11235
29,30,0.0945097669793,0.000145862107626,Broad Channel,30,Queens,40.60490815772557,-73.82479343526859,11693
30,31,0.0964245666516,0.000333975927329,Bronx Park,31,Bronx,40.860019378140095,-73.87609995460816,10458
31,32,0.05426721601,0.000150879171971,Bronxdale,32,Bronx,40.86438044535024,-73.8638466497724,10467
32,33,0.0532702931967,0.000147416802448,Brooklyn Heights,33,Brooklyn,40.69625709603423,-73.99602138646641,11201
33,34,0.0657059323545,0.000173946146651,Brooklyn Navy Yard,34,Brooklyn,40.702508451198185,-73.97231913450327,11251
34,35,0.085787918592,0.000323825195932,Brownsville,35,Brooklyn,40.66380652894031,-73.91258943439885,11212
35,36,0.0870507867063,0.000247666139269,Bushwick North,36,Brooklyn,40.69897492770378,-73.91757444782695,11237
36,37,0.142810040466,0.000452062644782,Bushwick South,37,Brooklyn,40.6962982868561,-73.92041795172373,11221
37,38,0.0832175685234,0.000327392684821,Cambria Heights,38,Queens,40.69336939864146,-73.73675716262328,11411
38,39,0.132369620757,0.00090028293862,Canarsie,39,Brooklyn,40.63886440850684,-73.89854833878215,11236
39,40,0.0518506648762,0.000108949211644,Carroll Gardens,40,Brooklyn,40.6785419696015,-73.99525847712623,11231
40,41,0.052793109453,0.000143093037737,Central Harlem,41,Manhattan,40.80417639059334,-73.95070948680674,10026
41,42,0.0927092274616,0.000263896952605,Central Harlem North,42,Manhattan,40.82096857755331,-73.94296152760926,10030
42,43,0.0997386183576,0.000379662912054,Central Park,43,Manhattan,40.782430926890406,-73.96543784456627,10024
43,44,0.235688967594,0.00194465649192,Charleston/Tottenville,44,Staten Island,40.52730921905213,-74.23063314720392,10309
44,45,0.0459068626235,9.13594688556e-05,Chinatown,45,Manhattan,40.71298223302274,-73.99883403697207,10278
45,46,0.134475429879,0.000926391677672,City Island,46,Bronx,40.84747322730711,-73.77944082656659,10464
46,47,0.0898275563294,0.000163198117339,Claremont/Bathgate,47,Bronx,40.845318843421836,-73.90038604462767,10457
47,48,0.0437467441431,9.42538425377e-05,Clinton East,48,Manhattan,40.7622488195133,-73.98983666003255,10019
48,49,0.0752900183427,0.000203185525471,Clinton Hill,49,Brooklyn,40.68876588630337,-73.96170387321409,11205
49,50,0.0557479867536,0.000173249283326,Clinton West,50,Manhattan,40.7665684548724,-73.99591049612351,10019
50,51,0.0953613442277,0.000395756553505,Co-Op City,51,Bronx,40.873441830153844,-73.82951042814729,10475
51,52,0.0289076710093,4.52027509603e-05,Cobble Hill,52,Brooklyn,40.68645905188364,-73.99650571586444,11201
52,53,0.161500913385,0.000947530980821,College Point,53,Queens,40.7819924596776,-73.847189686231,11356
53,54,0.0762192448554,0.000132452130536,Columbia Street,54,Brooklyn,40.686850096902596,-74.00497292925259,11231
54,55,0.149956807524,0.000736274713586,Coney Island,55,Brooklyn,40.57708743286506,-73.98621060625551,11224
55,56,0.0568478126677,0.000180907844436,Corona,56,Queens,40.741565129886304,-73.85770933462227,11368
55,56,0.0568478126677,0.000180907844436,Corona,56,Queens,40.75197999156667,-73.8533470195439,11368
56,57,0.0192705048557,1.80259807917e-05,Corona,56,Queens,40.741565129886304,-73.85770933462227,11368
56,57,0.0192705048557,1.80259807917e-05,Corona,56,Queens,40.75197999156667,-73.8533470195439,11368
57,58,0.0598554094851,0.000204980931361,Country Club,58,Bronx,40.84149345076036,-73.81897982663966,10465
58,59,0.0377948070893,6.28765230648e-05,Crotona Park,59,Bronx,40.83893229471981,-73.89390943434059,10457
59,60,0.0786482878226,0.000161833284912,Crotona Park East,60,Bronx,40.83133703776652,-73.88497942629185,10459
60,61,0.117310808097,0.000510772092295,Crown Heights North,61,Brooklyn,40.67397348602373,-73.94241783382385,11213
61,62,0.0822593359838,0.000158238169004,Crown Heights South,62,Brooklyn,40.66727684239473,-73.94563602053147,11213
62,63,0.119100721883,0.000353190910142,Cypress Hills,63,Brooklyn,40.68471024638148,-73.88253992751501,11208
63,64,0.18445188474,0.00105790284614,Douglaston,64,Queens,40.76064351117115,-73.73637252009019,11362
64,65,0.0446070683658,8.1803882541e-05,Downtown Brooklyn/MetroTech,65,Brooklyn,40.69535030061429,-73.98530022496767,11201
65,66,0.0546334593634,0.000108378855948,DUMBO/Vinegar Hill,66,Brooklyn,40.701704295694555,-73.98725069214528,11201
66,67,0.0997470781551,0.000394282272487,Dyker Heights,67,Brooklyn,40.618415533070184,-74.01239309414021,11228
67,68,0.0493373795569,0.000111073378655,East Chelsea,68,Manhattan,40.74843161042671,-73.99991914701923,10001
68,69,0.0789896450483,0.00019905160381,East Concourse/Concourse Village,69,Bronx,40.83060601610417,-73.91616768323327,10456
69,70,0.0638403183367,0.000195458476728,East Elmhurst,70,Queens,40.764190708061136,-73.86543993416028,11369
70,71,0.0931694551828,0.000382572587364,East Flatbush/Farragut,71,Brooklyn,40.644187230944894,-73.93707471913244,11203
71,72,0.0952020695166,0.000323532461947,East Flatbush/Remsen Village,72,Brooklyn,40.65265005396983,-73.92023427688835,11236
72,73,0.0853020209129,0.000291799754395,East Flushing,73,Queens,40.75376974805714,-73.8077109074101,11358
73,74,0.11029093625,0.000295038418204,East Harlem North,74,Manhattan,40.80561328542312,-73.93740476037416,10035
74,75,0.0876638997685,0.00024056392715,East Harlem South,75,Manhattan,40.79047880983552,-73.94541491745656,10029
75,76,0.241203016269,0.00126660143241,East New York,76,Brooklyn,40.658825172371856,-73.88256704072369,11207
76,77,0.075461081444,0.000191917981315,East New York/Pennsylvania Avenue,77,Brooklyn,40.667143776405915,-73.89266829860459,11207
77,78,0.0935944495806,0.000191114419551,East Tremont,78,Bronx,40.84606230876605,-73.88202178031946,10460
78,79,0.0426249113144,0.000107893068218,East Village,79,Manhattan,40.727953686977045,-73.98531513309665,10003
79,80,0.117212621448,0.00040732245622,East Williamsburg,80,Brooklyn,40.71445006634627,-73.93711249726206,11211
80,81,0.197592771731,0.00039956655019,Eastchester,81,Bronx,40.87739429522658,-73.82332624622698,10475
81,82,0.119875649697,0.000323601079994,Elmhurst,82,Queens,40.7384750605044,-73.87811290468368,11373
82,83,0.105984933269,0.000217463718718,Elmhurst/Maspeth,83,Queens,40.740163399388905,-73.89387458870331,11377
83,84,0.233623987032,0.00207375572052,Eltingville/Annadale/Prince's Bay,84,Staten Island,40.532023984716275,-74.19046128168661,10312
84,85,0.0574751473562,0.000143637804933,Erasmus,85,Brooklyn,40.64700889112937,-73.95220965266294,11226
85,86,0.134245282582,0.000623278815249,Far Rockaway,86,Queens,40.60257135564641,-73.75590395846024,11691
86,87,0.0369015496117,6.72050210692e-05,Financial District North,87,Manhattan,40.70665880355083,-74.0072389625047,10038
87,88,0.0352046035327,5.72999455414e-05,Financial District South,88,Manhattan,40.70327966853385,-74.01101072209408,10004
88,89,0.122794569553,0.000447548142373,Flatbush/Ditmas Park,89,Brooklyn,40.640803580343324,-73.96065378984527,11226
89,90,0.0307591620819,5.53132476305e-05,Flatiron,90,Manhattan,40.742282997333575,-73.99697141070173,10011
90,91,0.124996624585,0.000537330013243,Flatlands,91,Brooklyn,40.627953259462636,-73.93210808365768,11234
91,92,0.117830066799,0.000374946617289,Flushing,92,Queens,40.764359910582776,-73.82739320571693,11362
92,93,0.170998027597,0.000594278183978,Flushing Meadows-Corona Park,93,Queens,40.73919972200009,-73.83917409870772,11367
93,94,0.0498326083147,6.25819407393e-05,Fordham South,94,Bronx,40.85833037944795,-73.89836197991809,10458
94,95,0.113629605476,0.00057277033803,Forest Hills,95,Queens,40.72269538208136,-73.84591152612717,11375
95,96,0.185180248095,0.000547566253402,Forest Park/Highland Park,96,Queens,40.695782560757316,-73.86939014704775,11421
96,97,0.0624760147423,0.000163303970435,Fort Greene,97,Brooklyn,40.69012637922412,-73.97619514474306,11221
97,98,0.121661018278,0.000485773020954,Fresh Meadows,98,Queens,40.73406939816184,-73.77659555545212,11366
98,99,0.1833714893,0.00121016463877,Freshkills Park,99,Staten Island,40.57942085307101,-74.18839085732925,10311
99,100,0.0248131090342,3.74700210291e-05,Garment District,100,Manhattan,40.75351008701408,-73.988790956546,10018
100,101,0.101709836277,0.000452342528877,Glen Oaks,101,Queens,40.74353860213266,-73.71448463202205,11004
101,102,0.136900484646,0.000296595466345,Glendale,102,Queens,40.702663927252694,-73.8762679664206,11385
102,103,0.0143055167343,6.33056361314e-06,Governor's Island/Ellis Island/Liberty Island,103,Manhattan,40.689819464504794,-74.04514159353381,"{'neighbourhood': 'Manhattan Community Board 1', 'suburb': 'Manhattan', 'county': 'New York County', 'city': 'City of New York', 'state': 'New York', 'ISO3166-2-lvl4': 'US-NY', 'country': 'United States', 'country_code': 'us'}"
102,103,0.0143055167343,6.33056361314e-06,Governor's Island/Ellis Island/Liberty Island,103,Manhattan,40.69867184431501,-74.04069250330504,07302
102,103,0.0143055167343,6.33056361314e-06,Governor's Island/Ellis Island/Liberty Island,103,Manhattan,40.688135356380926,-74.01918941324507,10004
103,104,0.0212208330928,1.19205339715e-05,Governor's Island/Ellis Island/Liberty Island,103,Manhattan,40.689819464504794,-74.04514159353381,"{'neighbourhood': 'Manhattan Community Board 1', 'suburb': 'Manhattan', 'county': 'New York County', 'city': 'City of New York', 'state': 'New York', 'ISO3166-2-lvl4': 'US-NY', 'country': 'United States', 'country_code': 'us'}"
103,104,0.0212208330928,1.19205339715e-05,Governor's Island/Ellis Island/Liberty Island,103,Manhattan,40.69867184431501,-74.04069250330504,07302
103,104,0.0212208330928,1.19205339715e-05,Governor's Island/Ellis Island/Liberty Island,103,Manhattan,40.688135356380926,-74.01918941324507,10004
104,105,0.0774253398314,0.000368636392805,Governor's Island/Ellis Island/Liberty Island,103,Manhattan,40.689819464504794,-74.04514159353381,"{'neighbourhood': 'Manhattan Community Board 1', 'suburb': 'Manhattan', 'county': 'New York County', 'city': 'City of New York', 'state': 'New York', 'ISO3166-2-lvl4': 'US-NY', 'country': 'United States', 'country_code': 'us'}"
104,105,0.0774253398314,0.000368636392805,Governor's Island/Ellis Island/Liberty Island,103,Manhattan,40.69867184431501,-74.04069250330504,07302
104,105,0.0774253398314,0.000368636392805,Governor's Island/Ellis Island/Liberty Island,103,Manhattan,40.688135356380926,-74.01918941324507,10004
105,106,0.0492110119798,0.000113616826567,Gowanus,106,Brooklyn,40.67325801987311,-73.99018846511946,11215
106,107,0.0380413645908,7.46112192675e-05,Gramercy,107,Manhattan,40.73733753030077,-73.98401556048022,10010
107,108,0.11117141227,0.000352866009465,Gravesend,108,Brooklyn,40.58891733444415,-73.98281706359892,11223
108,109,0.178267819599,0.00116960076185,Great Kills,109,Staten Island,40.54909587378896,-74.15073694792966,10308
109,110,0.103946292913,0.000525745098785,Great Kills Park,110,Staten Island,40.543294401812354,-74.12701095260066,10308
110,111,0.0599308800658,0.000208683276503,Green-Wood Cemetery,111,Brooklyn,40.65189436056767,-73.99121725446571,11232
111,112,0.107267875765,0.000462068671429,Greenpoint,112,Brooklyn,40.728790329580285,-73.94817917085089,11222
112,113,0.032745350566,5.79634566998e-05,Greenwich Village North,113,Manhattan,40.73222524862839,-73.99496764762726,10003
113,114,0.0317270347711,4.70207704945e-05,Greenwich Village South,114,Manhattan,40.728532928663896,-73.99718270855969,10012
114,115,0.116169413964,0.000373168991958,Grymes Hill/Clifton,115,Staten Island,40.6201202245938,-74.08732468086055,10304
115,116,0.0681164844265,0.000260415337217,Hamilton Heights,116,Manhattan,40.82764307424762,-73.94909777742556,10031
116,117,0.169885857987,0.00090429427072,Hammels/Arverne,117,Queens,40.59608315357857,-73.79020366103762,11692
117,118,0.243966217692,0.00182693922711,Heartland Village/Todt Hill,118,Staten Island,40.58567488593259,-74.13021307778571,10306
118,119,0.0835070355744,0.000185779447534,Highbridge,119,Bronx,40.83677034836123,-73.92489620142155,10452
119,120,0.0832612702158,9.31462821313e-05,Highbridge Park,120,Manhattan,40.84598855445909,-73.93120742462821,10033
120,121,0.0969153373445,0.000384563286473,Hillcrest/Pomonok,121,Queens,40.72738404895306,-73.80275496202051,11366
121,122,0.0665318439446,0.000226597104976,Hollis,122,Queens,40.71095622104045,-73.76119404281654,11423
122,123,0.0834211389387,0.000296445173366,Homecrest,123,Brooklyn,40.59992884239058,-73.9645349944926,11223
123,124,0.127724410062,0.000754837821479,Howard Beach,124,Queens,40.6595638084565,-73.84476568881556,11414
124,125,0.0497322121757,7.64293209892e-05,Hudson Sq,125,Manhattan,40.725468411521476,-74.00867644681539,10013
125,126,0.12994872606,0.0007032738273,Hunts Point,126,Bronx,40.81392198107554,-73.88558381080202,10474
126,127,0.0600188855815,0.000163195647796,Inwood,127,Manhattan,40.86446078848149,-73.91958171469814,10034
127,128,0.0702090290681,0.000207405982869,Inwood Hill Park,128,Manhattan,40.87285050167212,-73.92187327301203,10034
128,129,0.0932727273403,0.00047398833179,Jackson Heights,129,Queens,40.75917530591671,-73.88463133085166,11370
129,130,0.142028320665,0.000468322514327,Jamaica,130,Queens,40.703286652596866,-73.79242174205773,11433
130,131,0.116547120922,0.000423696152789,Jamaica Estates,131,Queens,40.720428781944655,-73.77297484023012,11423
131,132,0.24547851707,0.00203830095472,JFK Airport,132,Queens,40.64268611362545,-73.78964352632623,11430
132,133,0.065134863162,0.000157188987507,Kensington,133,Brooklyn,40.639401166319814,-73.97819406804933,11218
133,134,0.0695878223284,0.000202375182143,Kew Gardens,134,Queens,40.70869132350198,-73.82975428344565,11415
134,135,0.121793045659,0.000467912240542,Kew Gardens Hills,135,Queens,40.729519919074306,-73.82081970552255,11367
135,136,0.0906287154122,0.000148524994129,Kingsbridge Heights,136,Bronx,40.86536240085513,-73.905395062517,10468
136,137,0.0461076242707,0.000116455098947,Kips Bay,137,Manhattan,40.740336047657294,-73.97717256218982,10016
137,138,0.107466933508,0.000536797294367,LaGuardia Airport,138,Queens,40.77485964421261,-73.87343718740672,11371
138,139,0.0932997884483,0.000446669880154,Laurelton,139,Queens,40.6778520049645,-73.74375551119886,11413
139,140,0.0475842911325,0.000114203907779,Lenox Hill East,140,Manhattan,40.765304816822606,-73.95472801896472,10065
140,141,0.0415144638712,7.66545579019e-05,Lenox Hill West,141,Manhattan,40.76695153680257,-73.95963482610853,10021
141,142,0.0381758942321,7.56537920738e-05,Lincoln Square East,142,Manhattan,40.7736586753138,-73.98153054861096,10025
142,143,0.0541798538849,0.00015109426901,Lincoln Square West,143,Manhattan,40.775785457763675,-73.98845769741143,10069
143,144,0.0276201668505,4.74789670369e-05,Little Italy/NoLiTa,144,Manhattan,40.72083181679464,-73.99724384665862,10012
144,145,0.114313844981,0.000346641733797,Long Island City/Hunters Point,145,Queens,40.74658220700945,-73.9496274835847,11101
145,146,0.0471405215717,0.000104638923425,Long Island City/Queens Plaza,146,Queens,40.754397991406876,-73.93410370226314,11101
146,147,0.0587654949268,0.000106418172757,Longwood,147,Bronx,40.81906409144857,-73.89864769290288,10459
147,148,0.0391305015633,6.97489921327e-05,Lower East Side,148,Manhattan,40.71910141767593,-73.99066435660109,10002
148,149,0.0836805821837,0.000270639618955,Madison,149,Brooklyn,40.606327317775175,-73.94642697357453,11229
149,150,0.089331491183,0.000332568036088,Manhattan Beach,150,Brooklyn,40.58046459287603,-73.94518068282902,11235
150,151,0.0548899410999,0.000128848901918,Manhattan Valley,151,Manhattan,40.79785911798938,-73.9682221702727,10025
151,152,0.0579094768782,0.000146637644064,Manhattanville,152,Manhattan,40.81751870056889,-73.95405635161538,10027
152,153,0.024737239022,3.24684964817e-05,Marble Hill,153,Manhattan,40.875598937678056,-73.9112258584905,10463
153,154,0.22733157076,0.00178968692433,Marine Park/Floyd Bennett Field,154,Brooklyn,40.593129204231296,-73.90822017476559,11234
154,155,0.169808473032,0.000868261018498,Marine Park/Mill Basin,155,Brooklyn,40.61779984125637,-73.91725605006323,11234
155,156,0.144476890476,0.0010521217443,Mariners Harbor,156,Staten Island,40.628759330000726,-74.16932299229812,10303
156,157,0.131300217777,0.000354370128323,Maspeth,157,Queens,40.72402889859418,-73.90559522489463,11378
157,158,0.0548099905515,0.000185568253002,Meatpacking/West Village West,158,Manhattan,40.73529529739826,-74.00977491304448,10014
158,159,0.064363233206,0.00017124910387,Melrose South,159,Bronx,40.81833723231163,-73.91396034276366,10455
159,160,0.14151914297,0.000571234977994,Middle Village,160,Queens,40.71856709476171,-73.88219192348444,11379
160,161,0.0358039100611,7.19130682992e-05,Midtown Center,161,Manhattan,40.758030251008876,-73.97768040780055,10111
161,162,0.0352698146219,4.78936962112e-05,Midtown East,162,Manhattan,40.75684008783511,-73.97247102803118,10022
162,163,0.0341768669752,4.08567804196e-05,Midtown North,163,Manhattan,40.764386840083915,-73.97704100883783,10019
163,164,0.0357716119908,5.56318237441e-05,Midtown South,164,Manhattan,40.74908359612632,-73.98568367069468,10001
164,165,0.088608036213,0.000353959317019,Midwood,165,Brooklyn,40.620073251813494,-73.95794402855306,11210
165,166,0.0688237542871,0.000255276270405,Morningside Heights,166,Manhattan,40.80962164629876,-73.96160427930977,10027
166,167,0.0908159737292,0.000167529391193,Morrisania/Melrose,167,Bronx,40.82798779485244,-73.90139128091434,10456
167,168,0.114517434155,0.000547058100444,Mott Haven/Port Morris,168,Bronx,40.807100674292506,-73.91466716905246,10454
168,169,0.0601046580332,0.000146027537733,Mount Hope,169,Bronx,40.84922870469356,-73.90625477877008,10453
169,170,0.0457690091051,7.43150675972e-05,Murray Hill,170,Manhattan,40.74772480011356,-73.97764803165889,10016
170,171,0.107353876244,0.000520099538161,Murray Hill-Queens,171,Queens,40.76865786576351,-73.8084327437963,11354
171,172,0.118476116148,0.000658402501406,New Dorp/Midland Beach,172,Staten Island,40.5724405027105,-74.10493211336883,10306
172,173,0.0600639661414,0.000178329851357,North Corona,173,Queens,40.75163926593024,-73.86340051006394,11368
173,174,0.0678177559602,0.000155928664422,Norwood,174,Bronx,40.87685305674994,-73.87874502549676,10467
174,175,0.134897665102,0.000504920726134,Oakland Gardens,175,Queens,40.7432970879692,-73.75394465101964,11364
175,176,0.151995190703,0.000657782126267,Oakwood,176,Staten Island,40.562072591258776,-74.12215228813189,10306
176,177,0.0715805407056,0.000198894762248,Ocean Hill,177,Brooklyn,40.67714873739985,-73.911393404933,11233
177,178,0.0682528770739,0.000175805409143,Ocean Parkway South,178,Brooklyn,40.61763563424991,-73.97035344389302,11230
178,179,0.0713808644377,0.000183893478476,Old Astoria,179,Queens,40.771420144294076,-73.9277807560141,11102
179,180,0.0805277671523,0.000247682193353,Ozone Park,180,Queens,40.67507747361382,-73.84834282015188,11417
180,181,0.0895372399547,0.000306890292807,Park Slope,181,Brooklyn,40.67193520950547,-73.98281953462353,11215
181,182,0.0393606369479,9.10644156732e-05,Parkchester,182,Bronx,40.83773100094664,-73.85808184206338,10462
182,183,0.0398262960348,9.51929451066e-05,Pelham Bay,183,Bronx,40.8495445650458,-73.83148806764527,10461
183,184,0.260815683043,0.00198883363103,Pelham Bay Park,184,Bronx,40.863917294675375,-73.79975802833549,10464
184,185,0.0861619681636,0.000228537100218,Pelham Parkway,185,Bronx,40.85347482675,-73.85245596252103,10461
185,186,0.0246963902234,3.70729416953e-05,Penn Station/Madison Sq West,186,Manhattan,40.748496373544775,-73.9924341343755,10001
186,187,0.126868431324,0.000421195755741,Port Richmond,187,Staten Island,40.625698473830006,-74.13743527576136,10302
187,188,0.0977983968367,0.000313003032771,Prospect-Lefferts Gardens,188,Brooklyn,40.65733936744572,-73.9447734336128,11203
188,189,0.0486743306502,0.000101427594033,Prospect Heights,189,Brooklyn,40.677220683057875,-73.96812684806724,11238
189,190,0.0743294660829,0.000270873666522,Prospect Park,190,Brooklyn,40.66064340328925,-73.97059331443157,11215
190,191,0.130932637664,0.000688460603185,Queens Village,191,Queens,40.71394840408405,-73.74200247104758,11429
191,192,0.11196461971,0.000373808019026,Queensboro Hill,192,Queens,40.74441059342794,-73.8152021569993,11355
192,193,0.0655299584801,0.000145591657944,Queensbridge/Ravenswood,193,Queens,40.761793541406774,-73.94239238062636,11106
193,194,0.0817938353532,0.000273481702719,Randalls Island,194,Manhattan,40.79145830376352,-73.92492531387032,10035
194,195,0.131308244067,0.000801651953985,Red Hook,195,Brooklyn,40.67546295638451,-74.00928514631666,11231
195,196,0.0832421106332,0.0001974713336,Rego Park,196,Queens,40.72371254876027,-73.86568843367422,11374
196,197,0.108568532229,0.000504689160432,Richmond Hill,197,Queens,40.69266735388762,-73.83006053115416,11419
197,198,0.134094242763,0.000499809882564,Ridgewood,198,Queens,40.70461392432039,-73.90083342753417,11385
198,199,0.0778085005169,0.000288747549303,Rikers Island,199,Bronx,40.79205183008042,-73.88180096934396,11371
199,200,0.112661735435,0.000744643168558,Riverdale/North Riverdale/Fieldston,200,Bronx,40.90007560612429,-73.90846687412984,10471
200,201,0.130404117686,0.000619350747819,Rockaway Park,201,Queens,40.57742185941851,-73.84104052161538,11694
201,202,0.0699215712618,0.000106175396322,Roosevelt Island,202,Manhattan,40.761180806781596,-73.95081168770048,10044
202,203,0.189937815868,0.000615129861659,Rosedale,203,Queens,40.65928494184319,-73.74453868117133,11422
203,204,0.101912418311,0.000641384265972,Rossville/Woodrow,204,Staten Island,40.540775870692265,-74.20652667104866,10309
204,205,0.141953388327,0.000766216513505,Saint Albans,205,Queens,40.691698027395226,-73.76343547832366,11412
205,206,0.212756793386,0.000944392507762,Saint George/New Brighton,206,Staten Island,40.635989629714906,-74.10065353552305,10301
206,207,0.0283756831492,4.47230848441e-05,Saint Michaels Cemetery/Woodside,207,Queens,40.76352213471697,-73.89853618537848,11370
207,208,0.214721009581,0.00202032598969,Schuylerville/Edgewater Park,208,Bronx,40.82468017550547,-73.81617148263088,10465
208,209,0.0306953113473,3.88703351209e-05,Seaport,209,Manhattan,40.70847535091812,-74.00412841215771,10038
209,210,0.114851983372,0.000453155131253,Sheepshead Bay,210,Brooklyn,40.59377082857791,-73.9391962097623,11235
210,211,0.0252345082132,3.97291966087e-05,SoHo,211,Manhattan,40.72371648291452,-74.00108192197239,10012
211,212,0.0671290653429,0.000161276191858,Soundview/Bruckner,212,Bronx,40.82828767607801,-73.87039556671365,10472
212,213,0.159958783822,0.000904077906339,Soundview/Castle Hill,213,Bronx,40.816731370792056,-73.86027521405913,10473
213,214,0.135300314246,0.000811976523012,South Beach/Dongan Hills,214,Staten Island,40.58661635006406,-74.08480864561312,10305
214,215,0.103556453625,0.000395647022725,South Jamaica,215,Queens,40.69419208698072,-73.79230112190288,11433
215,216,0.116797554681,0.000816076647781,South Ozone Park,216,Queens,40.677222522161365,-73.82062521890268,11420
216,217,0.0553905251285,0.000114733270758,South Williamsburg,217,Brooklyn,40.7032320056805,-73.95772171969621,11211
217,218,0.0837008281049,0.000281293736407,Springfield Gardens North,218,Queens,40.67348236381235,-73.77287378904317,11434
218,219,0.155126669675,0.000428176336771,Springfield Gardens South,219,Queens,40.66030816955596,-73.77031766231762,11434
219,220,0.106015943267,0.000313035744467,Spuyten Duyvil/Kingsbridge,220,Bronx,40.88184930807984,-73.91076089177298,10463
220,221,0.166218220846,0.000890111567051,Stapleton,221,Staten Island,40.62023024721676,-74.072363266337,10304
221,222,0.0483893527976,0.000130268343918,Starrett City,222,Brooklyn,40.64671811250597,-73.882917796064,11239
222,223,0.166021925275,0.00076436070058,Steinway,223,Queens,40.778406838788975,-73.90583210697467,11105
223,224,0.0440204462769,9.84786989135e-05,Stuy Town/Peter Cooper Village,224,Manhattan,40.731710157444574,-73.9769805471532,10009
224,225,0.0887992073281,0.000310835395162,Stuyvesant Heights,225,Brooklyn,40.688714833719835,-73.93012296976369,11221
225,226,0.168957762041,0.00076194414504,Sunnyside,226,Queens,40.73524693575397,-73.92653049129719,11377
226,227,0.0828301570789,0.000268316529534,Sunset Park East,227,Brooklyn,40.64153479500538,-74.0029480543899,11220
227,228,0.177685177706,0.000993414783816,Sunset Park West,228,Brooklyn,40.65359300851703,-74.00996120455362,11232
228,229,0.0425252900116,9.47058230931e-05,Sutton Place/Turtle Bay North,229,Manhattan,40.75657342350862,-73.96499770371872,10022
229,230,0.0310283096779,5.60914463266e-05,Times Sq/Theatre District,230,Manhattan,40.759816935371866,-73.98419649030515,10036
230,231,0.0634201165587,0.000166929752992,TriBeCa/Civic Center,231,Manhattan,40.71857653319885,-74.00726407589688,10013
231,232,0.0614709085331,0.000216049973456,Two Bridges/Seward Park,232,Manhattan,40.71529952203663,-73.98302174649305,10002
232,233,0.048035918294,0.000116188094682,UN/Turtle Bay South,233,Manhattan,40.74912352340265,-73.9699792454683,10017
233,234,0.0360721994984,7.31054382894e-05,Union Sq,234,Manhattan,40.74023673754262,-73.99045769686899,10010
234,235,0.0761668426519,0.000212844547337,University Heights/Morris Heights,235,Bronx,40.853709874599296,-73.91638080821232,10453
235,236,0.0442519223099,0.000102864345211,Upper East Side North,236,Manhattan,40.78043963903396,-73.95701007786707,10028
236,237,0.0422126003388,9.59873206621e-05,Upper East Side South,237,Manhattan,40.76861401615748,-73.96563559607029,10065
237,238,0.0601093114033,0.000184763693765,Upper West Side North,238,Manhattan,40.79178334130001,-73.9730312061259,10025
238,239,0.0636261152958,0.000204715440774,Upper West Side South,239,Manhattan,40.78402467184409,-73.97873165557294,10024
239,240,0.146069764379,0.000722130920707,Van Cortlandt Park,240,Bronx,40.89477155956185,-73.88053624317433,10468
240,241,0.0687645777649,0.00025467697592,Van Cortlandt Village,241,Bronx,40.87601241184217,-73.89587874426599,10468
241,242,0.138136446433,0.000360072450014,Van Nest/Morris Park,242,Bronx,40.84965337341624,-73.85104022621752,10461
242,243,0.0943314999364,0.000438377341503,Washington Heights North,243,Manhattan,40.85863885680896,-73.93579384854495,10040
243,244,0.0805686044599,0.000359702747951,Washington Heights South,244,Manhattan,40.84119423491348,-73.9407750505543,10032
244,245,0.0959830596604,0.000466175414294,West Brighton,245,Staten Island,40.62838711805502,-74.10068245787151,10301
245,246,0.0694671937437,0.000281298327076,West Chelsea/Hudson Yards,246,Manhattan,40.752411745817085,-74.00381236916317,10001
246,247,0.0929678582271,0.000205617157843,West Concourse,247,Bronx,40.829182377133655,-73.9225137751614,10452
247,248,0.0569191167671,0.000149592769799,West Farms/Bronx River,248,Bronx,40.83468053974887,-73.87330004839919,10472
248,249,0.03638434365,7.22155957729e-05,West Village,249,Manhattan,40.73461066592281,-74.00196544933564,10014
249,250,0.0796263465454,0.000240975845956,Westchester Village/Unionport,250,Bronx,40.83260904544631,-73.8498621515554,10462
250,251,0.1377111611,0.000625754983157,Westerleigh,251,Staten Island,40.61958467181592,-74.12367427378986,10314
251,252,0.158004373564,0.00102526406057,Whitestone,252,Queens,40.78831685242009,-73.81570278183855,11357
252,253,0.0360514998192,7.83395761191e-05,Willets Point,253,Queens,40.76039185525365,-73.8417522517167,11368
253,254,0.0858863754861,0.000360040216032,Williamsbridge/Olinville,254,Bronx,40.8833098569225,-73.85822977434634,10467
254,255,0.0623841997664,0.000172309184842,Williamsburg (North Side),255,Brooklyn,40.71879249996845,-73.9572880106519,11249
255,256,0.0679149669603,0.000168611097013,Williamsburg (South Side),256,Brooklyn,40.7109789727406,-73.95933183283628,11211
256,257,0.0586690259793,0.00013890947321,Windsor Terrace,257,Brooklyn,40.65347764098074,-73.97963519429607,11218
257,258,0.0890133787693,0.000366209617143,Woodhaven,258,Queens,40.68997247030926,-73.85493641775041,11421
258,259,0.126750305191,0.000394552487366,Woodlawn/Wakefield,259,Bronx,40.899069792867955,-73.85631852356715,10470
259,260,0.133514154636,0.000422345326907,Woodside,260,Queens,40.74660451712384,-73.90684115099866,11377
260,261,0.0271204563616,3.43423231652e-05,World Trade Center,261,Manhattan,40.7091199762481,-74.01264388666944,10006
261,262,0.0490636231541,0.000122330270966,Yorkville East,262,Manhattan,40.77668091965627,-73.94514228025622,10128
262,263,0.0370166252994,6.57697664169e-05,Yorkville West,263,Manhattan,40.77876628142981,-73.95100879518704,10128
